# Made by eph2tle, compiled Apr 14 2023 10:14:57
# Run at Sat Apr 15 16:56:14 2023
#
# No updates (going to heliocentric orbit)
#
#    The following TLEs (Two-Line Elements) were generated by fitting
# a numerically-integrated ephemeris,  based on the orbit given below,
# to the SDP4/SGP4 models.  Each TLE is good for the interval between
# its epoch and the epoch of the subsequent TLE (usually one day).
# The maximum deviation between the numerically integrated ephemerides
# and the TLE-based ephemeris, in kilometers,  is given for each TLE
# as the "worst residual".
#
#    This fitting is done using the 'eph2tle' code packaged with Find_Orb.
# The code has details on how the TLEs were computed :
#
#    https://github.com/Bill-Gray/find_orb/eph2tle.cpp
#
#    Be warned:  the error given is that between the numerically
# integrated ephems and the TLE model.  There will usually be at
# least some additional difference between the ephems and the actual
# motion of the satellite,  especially if the ephemerides are based
# on a short arc.  If the following orbital elements say something
# like "[based on] 10 observations 2015 Jan. 1-13",  and the TLEs
# are for 2015 May,  the extrapolation may be tenuous at best.  If
# your application requires a specific level of accuracy,  you may
# want to contact me;  I can give you some idea as to the fit of the
# underlying data (and possibly TLEs based on newer data).
#
#   You can usually find the underlying observational data,  and the
# fitted orbit,  residuals,  ephemerides,  and sometimes some comments
# about the object,  among the pages listed at
#
#    https://www.projectpluto.com/pluto/mpecs/pseudo.htm
#
#    WARNING:  for this object,  "normal" TLEs cannot be fitted.  (This
# usually means an object with an hyperbolic or nearly-parabolic orbit.)
# For this and similar cases,   an alternative model is used,  in which
# most of the traditional TLE data is replaced by six signed 8-digit hex
# numbers.  These six numbers are a state vector,  numerically integrated
# using a simplified force model.  This is necessary for objects at L2 or
# L1,  and sometimes for objects in high orbits where the SDP4/SGP4 model
# fails.  Some documentation is in 'get_el.cpp' in the source code at
# https://www.github.com/Bill-Gray/sat_code ; look for 'hex' in that file,
# with the actual integration done in 'sdp4.cpp'.  But be aware:  it's my
# own extension,  doesn't work with other code,  and is therefore used
# only when necessary.
#
#    Also,  if you use a TLE outside the "correct" time range (between
# its MJD and that of the next TLE),  all bets are off.  I've carefully
# computed and minimized the worst error over the "correct" time frame,
# but the ephemeris may (or may not) diverge wildly outside of it.
#
# Ephem range: 60048.600000 60078.600000 1.000000
# Created Sat Apr 15 16:56:10 2023
# Ephemeris start: 14 Apr 2023 14:24:00
# Ephemeris end:   14 May 2023 14:24:00
# Times are all TDT
# Positions/velocities are in ecliptic J2000
# Orbital elements:  JUICE = 2023-053A = NORAD 56176
#    Perigee 2023 Apr 14.5240807 +/- 2.55e-6 TT = 12:34:40.57 (JD 2460049.0240807)
# Epoch 2023 Apr 15.0 TT = JDT 2460049.5                           Find_Orb
# q  6691.9197442 +/- 0.154           (J2000 equator)
# H   27.08 G 0.15                    Peri.  177.0445887 +/- 0.0011
#                                     Node   213.8612468 +/- 0.0009
# e   1.104292907 +/- 5.59e-6         Incl.    5.9729795 +/- 0.00013
# 132 of 136 observations 2023 Apr. 14-15 (28.5 hr); mean residual 0".686
#
# 1 NoradU COSPAR   Epoch.epoch     dn/dt/2  d2n/dt2/6 BSTAR    T El# C
# 2 NoradU Inclina RAAscNode Eccent  ArgPeri MeanAno  MeanMotion Rev# C

# Worst residual: 1.75 km
# MJD 60048.600000 (2023 Apr 14 14:24)
JUICE = 2023-053A = NORAD 56176
1 56176U 23053A   23104.59919926 -000LVUX7 +000960M6 -00024KHVH 19319
2 56176                          -000UDA7R +0000NG63 -0001WRQ6     02

# Worst residual: 2.63 km
# MJD 60049.600000 (2023 Apr 15 14:24)
JUICE = 2023-053A = NORAD 56176
1 56176U 23053A   23105.59919926 -005EPHL3 -0004T7YT -000BGHZOH 19316
2 56176                          -000HEDS1 -0001S9WC -0000WKP9     00

# Worst residual: 6.99 km
# MJD 60050.600000 (2023 Apr 16 14:24)
JUICE = 2023-053A = NORAD 56176
1 56176U 23053A   23106.59919926 -009FLG25 -000K1EZ9 -000IY8PGH 19312
2 56176                          -000GC9T8 -0001QR0T -0000UBDR     08

# Worst residual: 1.68 km
# MJD 60051.600000 (2023 Apr 17 14:24)
JUICE = 2023-053A = NORAD 56176
1 56176U 23053A   23107.59919926 -00DAT0B7 -000Z09KJ -000Q4CL0H 19319
2 56176                          -000FXOLQ -0001Q49D -0000TK45     03

# Worst residual: 0.64 km
# MJD 60052.600000 (2023 Apr 18 14:24)
JUICE = 2023-053A = NORAD 56176
1 56176U 23053A   23108.59919926 -00H3J9LH -001DWVQ8 -000X6LFPH 19317
2 56176                          -000FQI1M -0001Q73A -0000TCZG     02

# Worst residual: 0.71 km
# MJD 60053.600000 (2023 Apr 19 14:24)
JUICE = 2023-053A = NORAD 56176
1 56176U 23053A   23109.59919926 -00KUZOGZ -001SWMRZ -00148OADH 19315
2 56176                          -000FMP27 -0001QTOF -0000THZE     00

# Worst residual: 0.78 km
# MJD 60054.600000 (2023 Apr 20 14:24)
JUICE = 2023-053A = NORAD 56176
1 56176U 23053A   23110.59919926 -00OLRVVK -00283TXY -001BD2YDH 19319
2 56176                          -000FKQC9 -0001RWOX -0000TW0X     00

# Worst residual: 0.87 km
# MJD 60055.600000 (2023 Apr 21 14:24)
JUICE = 2023-053A = NORAD 56176
1 56176U 23053A   23111.59919926 -00SC8AE3 -002NM4X5 -001ILRV7H 19314
2 56176                          -000FJVM0 -0001TDVN -0000UHGK     01

# Worst residual: 1.03 km
# MJD 60056.600000 (2023 Apr 22 14:24)
JUICE = 2023-053A = NORAD 56176
1 56176U 23053A   23112.59919926 -00W2KM8W -0033IQD9 -001Q0DU3H 19314
2 56176                          -000FJQMB -0001V7HV -0000V969     02

# Worst residual: 1.24 km
# MJD 60057.600000 (2023 Apr 23 14:24)
JUICE = 2023-053A = NORAD 56176
1 56176U 23053A   23113.59919926 -00ZSXYID -003JWFC0 -001XMBA5H 19315
2 56176                          -000FK2YI -0001XC4D -0000W6BA     03

# Worst residual: 1.47 km
# MJD 60058.600000 (2023 Apr 24 14:24)
JUICE = 2023-053A = NORAD 56176
1 56176U 23053A   23114.59919926 -013JFSKD -0040TPPO -0025GS13H 19316
2 56176                          -000FKRDT -0001ZQL6 -0000X872     04

# Worst residual: 1.68 km
# MJD 60059.600000 (2023 Apr 25 14:24)
JUICE = 2023-053A = NORAD 56176
1 56176U 23053A   23115.59919926 -017A4L3O -004ICUBX -002DKULLH 19319
2 56176                          -000FLOHG -00022DYE -0000YE9R     03

# Worst residual: 1.81 km
# MJD 60060.600000 (2023 Apr 26 14:24)
JUICE = 2023-053A = NORAD 56176
1 56176U 23053A   23116.59919926 -01B124J2 -0050JUPM -002LZH7NH 19313
2 56176                          -000FMRYO -000259GW -0000ZO3A     09

# Worst residual: 1.86 km
# MJD 60061.600000 (2023 Apr 27 14:24)
JUICE = 2023-053A = NORAD 56176
1 56176U 23053A   23117.59919926 -01ES9QM2 -005JGMHM -002UPIL1H 19310
2 56176                          -000FO07N -00028CIH -000111AC     00

# Worst residual: 1.86 km
# MJD 60062.600000 (2023 Apr 28 14:24)
JUICE = 2023-053A = NORAD 56176
1 56176U 23053A   23118.59919926 -01IJSFBP -00634WFP -0033RQHUH 19311
2 56176                          -000FPC2V -0002BMKI -00012HJM     07

# Worst residual: 1.85 km
# MJD 60063.600000 (2023 Apr 29 14:24)
JUICE = 2023-053A = NORAD 56176
1 56176U 23053A   23119.59919926 -01MBMY4R -006NMB45 -003D6U5JH 19316
2 56176                          -000FQQQE -0002F36E -000140KV     06

# Worst residual: 1.88 km
# MJD 60064.600000 (2023 Apr 30 14:24)
JUICE = 2023-053A = NORAD 56176
1 56176U 23053A   23120.59919926 -01Q3TWFG -0078YD9Y -003MZGEMH 19315
2 56176                          -000FS7LC -0002IPWT -00015M4M     09

# Worst residual: 1.98 km
# MJD 60065.600000 (2023 May  1 14:24)
JUICE = 2023-053A = NORAD 56176
1 56176U 23053A   23121.59919926 -01TWDRLJ -007V6I40 -003X65V9H 19316
2 56176                          -000FTQB2 -0002MIDI -000179XR     01

# Worst residual: 2.16 km
# MJD 60066.600000 (2023 May  2 14:24)
JUICE = 2023-053A = NORAD 56176
1 56176U 23053A   23122.59919926 -01XPAYY3 -008IC1KJ -0047RH1VH 19311
2 56176                          -000FVAQX -0002QG7V -00018ZRY     08

# Worst residual: 2.36 km
# MJD 60067.600000 (2023 May  3 14:24)
JUICE = 2023-053A = NORAD 56176
1 56176U 23053A   23123.59919926 -021ILXN4 -0096G8WY -004IRUM3H 19314
2 56176                          -000FWX0D -0002UJ6F -0001ARG7     06

# Worst residual: 2.51 km
# MJD 60068.600000 (2023 May  4 14:24)
JUICE = 2023-053A = NORAD 56176
1 56176U 23053A   23124.59919926 -025CB4KS -009VKBPZ -004U7PTRH 19319
2 56176                          -000FYLE5 -0002YR50 -0001CKU7     00

# Worst residual: 2.57 km
# MJD 60069.600000 (2023 May  5 14:24)
JUICE = 2023-053A = NORAD 56176
1 56176U 23053A   23125.59919926 -0296F3Z4 -00ALPHGE -00563HCYH 19317
2 56176                          -000G0CCT -0003347B -0001EFXH     08

# Worst residual: 2.53 km
# MJD 60070.600000 (2023 May  6 14:24)
JUICE = 2023-053A = NORAD 56176
1 56176U 23053A   23126.59919926 -02D0YKE7 -00BCWZMP -005IFKE8H 19312
2 56176                          -000G26FC -00037MQZ -0001GCUY     09

# Worst residual: 2.44 km
# MJD 60071.600000 (2023 May  7 14:24)
JUICE = 2023-053A = NORAD 56176
1 56176U 23053A   23127.59919926 -02GVYASF -00C588CX -005V8G07H 19314
2 56176                          -000G442J -0003CBGO -0001IBXJ     04

# Worst residual: 2.37 km
# MJD 60072.600000 (2023 May  8 14:24)
JUICE = 2023-053A = NORAD 56176
1 56176U 23053A   23128.59919926 -02KRF7DT -00CYOSXH -0068IOLUH 19315
2 56176                          -000G65JY -0003H7B9 -0001KDM2     03

# Worst residual: 2.40 km
# MJD 60073.600000 (2023 May  9 14:24)
JUICE = 2023-053A = NORAD 56176
1 56176U 23053A   23129.59919926 -02ONE7CL -00DTCJXM -006MAZ8LH 19316
2 56176                          -000G8ATB -0003MBGS -0001MIHX     02

# Worst residual: 2.57 km
# MJD 60074.600000 (2023 May 10 14:24)
JUICE = 2023-053A = NORAD 56176
1 56176U 23053A   23130.59919926 -02SJW5L8 -00EP9MIN -0070M6FUH 19312
2 56176                          -000GAJDP -0003RP6C -0001OR94     03

# Worst residual: 2.84 km
# MJD 60075.600000 (2023 May 11 14:24)
JUICE = 2023-053A = NORAD 56176
1 56176U 23053A   23131.59919926 -02WGXR31 -00FMIGIX -007FHAJWH 19319
2 56176                          -000GCUCR -0003XDN7 -0001R4JN     05

# Worst residual: 3.18 km
# MJD 60076.600000 (2023 May 12 14:24)
JUICE = 2023-053A = NORAD 56176
1 56176U 23053A   23132.59919926 -030EJFCI -00GL5RIW -007UXHFTH 19312
2 56176                          -000GF6GA -00043DWH -0001TMZ5     09

# Worst residual: 3.51 km
# MJD 60077.600000 (2023 May 13 14:24)
JUICE = 2023-053A = NORAD 56176
1 56176U 23053A   23133.59919926 -034CP9E0 -00HLAGWO -008B01O2H 19315
2 56176                          -000GHI2W -00049QPS -0001WB0W     06
Avg worst resid: 2.14 km
Worst residual in entire run: 6.99 km on MJD 60050.6
       1     3     10    30    100   300   1K    3K    10K   km
     4    23     3     0     0     0     0     0     0     0
